{"fetched_at":"2026-03-29T16:36:15Z","count":15609,"tles":[{"name":"STARLINK-33593","line1":"1 62780U 25015Y   26087.75810634  .00023079  00000+0  78869-3 0  9994","line2":"2 62780  53.1570 233.6628 0001051  68.2241 291.8872 15.30209833 67404","category":"Starlink"}]}